{"type": "FeatureCollection", "features": [ {"type": "Feature", "properties": {"norad_id": 43010, "name": "FENGYUN 3D", "group": "weather", "lat": -50.989526125019495, "lon": -22.74275315505655, "alt_km": 834.3358199155091, "timestamp": "2025-12-25T11:37:44.064964+00:00", "meta": {"OBJECT_NAME": "FENGYUN 3D", "OBJECT_ID": "2017-072A", "EPOCH": "2025-12-25T05:06:25.500096", "MEAN_MOTION": 14.19687267, "ECCENTRICITY": 0.0001525, "INCLINATION": 98.9914, "RA_OF_ASC_NODE": 325.7104, "ARG_OF_PERICENTER": 146.5453, "MEAN_ANOMALY": 213.5819, "EPHEMERIS_TYPE": 0, "CLASSIFICATION_TYPE": "U", "NORAD_CAT_ID": 43010, "ELEMENT_SET_NO": 999, "REV_AT_EPOCH": 42030, "BSTAR": 5.0555e-05, "MEAN_MOTION_DOT": 6.1e-07, "MEAN_MOTION_DDOT": 0}, "tle": {"line1": "1 43010U 17072A   25359.21279514  .00000061  00000+0  50555-4 0  9990", "line2": "2 43010  98.9914 325.7104 0001525 146.5453 213.5819 14.19687267420302"}}, "geometry": {"type": "Point", "coordinates": [-22.74275315505655, -50.989526125019495]}}, {"type": "Feature", "properties": {"norad_id": 43013, "name": "NOAA 20 (JPSS-1)", "group": "weather", "lat": 80.72785934622621, "lon": -173.51208996944953, "alt_km": 818.1433872319312, "timestamp": "2025-12-25T11:37:44.064975+00:00", "meta": {"OBJECT_NAME": "NOAA 20 (JPSS-1)", "OBJECT_ID": "2017-073A", "EPOCH": "2025-12-25T01:02:33.235872", "MEAN_MOTION": 14.19528938, "ECCENTRICITY": 0.0002074, "INCLINATION": 98.7615, "RA_OF_ASC_NODE": 295.2065, "ARG_OF_PERICENTER": 69.6621, "MEAN_ANOMALY": 290.4778, "EPHEMERIS_TYPE": 0, "CLASSIFICATION_TYPE": "U", "NORAD_CAT_ID": 43013, "ELEMENT_SET_NO": 999, "REV_AT_EPOCH": 41976, "BSTAR": 6.5293e-05, "MEAN_MOTION_DOT": 9.4e-07, "MEAN_MOTION_DDOT": 0}, "tle": {"line1": "1 43013U 17073A   25359.04344023  .00000094  00000+0  65293-4 0  9994", "line2": "2 43013  98.7615 295.2065 0002074  69.6621 290.4778 14.19528938419765"}}, "geometry": {"type": "Point", "coordinates": [-173.51208996944953, 80.72785934622621]}}, {"type": "Feature", "properties": {"norad_id": 43226, "name": "GOES 17", "group": "weather", "lat": 0.49312129887464623, "lon": 179.13740663082618, "alt_km": 35788.42871635438, "timestamp": "2025-12-25T11:37:44.064995+00:00", "meta": {"OBJECT_NAME": "GOES 17", "OBJECT_ID": "2018-022A", "EPOCH": "2025-12-24T22:56:44.493792", "MEAN_MOTION": 1.00272054, "ECCENTRICITY": 0.0003091, "INCLINATION": 0.4873, "RA_OF_ASC_NODE": 89.0534, "ARG_OF_PERICENTER": 190.9391, "MEAN_ANOMALY": 68.4163, "EPHEMERIS_TYPE": 0, "CLASSIFICATION_TYPE": "U", "NORAD_CAT_ID": 43226, "ELEMENT_SET_NO": 999, "REV_AT_EPOCH": 2867, "BSTAR": 0, "MEAN_MOTION_DOT": -1.62e-06, "MEAN_MOTION_DDOT": 0}, "tle": {"line1": "1 43226U 18022A   25358.95607053 -.00000162  00000+0  00000+0 0  9996", "line2": "2 43226   0.4873  89.0534 0003091 190.9391  68.4163  1.00272054 28677"}}, "geometry": {"type": "Point", "coordinates": [179.13740663082618, 0.49312129887464623]}}, {"type": "Feature", "properties": {"norad_id": 43491, "name": "FENGYUN 2H", "group": "weather", "lat": -2.587831753058122, "lon": -11.966680569778033, "alt_km": 35788.59303794798, "timestamp": "2025-12-25T11:37:44.065009+00:00", "meta": {"OBJECT_NAME": "FENGYUN 2H", "OBJECT_ID": "2018-050A", "EPOCH": "2025-12-24T23:44:54.879648", "MEAN_MOTION": 1.00270521, "ECCENTRICITY": 0.0002408, "INCLINATION": 2.5805, "RA_OF_ASC_NODE": 81.201, "ARG_OF_PERICENTER": 166.3972, "MEAN_ANOMALY": 281.7244, "EPHEMERIS_TYPE": 0, "CLASSIFICATION_TYPE": "U", "NORAD_CAT_ID": 43491, "ELEMENT_SET_NO": 999, "REV_AT_EPOCH": 2769, "BSTAR": 0, "MEAN_MOTION_DOT": -1.09e-06, "MEAN_MOTION_DDOT": 0}, "tle": {"line1": "1 43491U 18050A   25358.98952407 -.00000109  00000+0  00000+0 0  9991", "line2": "2 43491   2.5805  81.2010 0002408 166.3972 281.7244  1.00270521 27693"}}, "geometry": {"type": "Point", "coordinates": [-11.966680569778033, -2.587831753058122]}}, {"type": "Feature", "properties": {"norad_id": 43689, "name": "METOP-C", "group": "weather", "lat": -35.889684321708344, "lon": 63.412477466138284, "alt_km": 826.2907623347137, "timestamp": "2025-12-25T11:37:44.065021+00:00", "meta": {"OBJECT_NAME": "METOP-C", "OBJECT_ID": "2018-087A", "EPOCH": "2025-12-25T03:21:10.924128", "MEAN_MOTION": 14.21489011, "ECCENTRICITY": 6.33e-05, "INCLINATION": 98.6912, "RA_OF_ASC_NODE": 56.7183, "ARG_OF_PERICENTER": 16.0492, "MEAN_ANOMALY": 344.0705, "EPHEMERIS_TYPE": 0, "CLASSIFICATION_TYPE": "U", "NORAD_CAT_ID": 43689, "ELEMENT_SET_NO": 999, "REV_AT_EPOCH": 37010, "BSTAR": 7.9971e-05, "MEAN_MOTION_DOT": 1.31e-06, "MEAN_MOTION_DDOT": 0}, "tle": {"line1": "1 43689U 18087A   25359.13970977  .00000131  00000+0  79971-4 0  9992", "line2": "2 43689  98.6912  56.7183 0000633  16.0492 344.0705 14.21489011370106"}}, "geometry": {"type": "Point", "coordinates": [63.412477466138284, -35.889684321708344]}}, {"type": "Feature", "properties": {"norad_id": 43823, "name": "GEO-KOMPSAT-2A", "group": "weather", "lat": -0.02467002343115195, "lon": 36.9104921318441, "alt_km": 35786.14497345446, "timestamp": "2025-12-25T11:37:44.065032+00:00", "meta": {"OBJECT_NAME": "GEO-KOMPSAT-2A", "OBJECT_ID": "2018-100A", "EPOCH": "2025-12-24T05:33:51.801120", "MEAN_MOTION": 1.00269294, "ECCENTRICITY": 3.001e-05, "INCLINATION": 0.0444, "RA_OF_ASC_NODE": 175.8502, "ARG_OF_PERICENTER": 270.743, "MEAN_ANOMALY": 218.1364, "EPHEMERIS_TYPE": 0, "CLASSIFICATION_TYPE": "U", "NORAD_CAT_ID": 43823, "ELEMENT_SET_NO": 999, "REV_AT_EPOCH": 2587, "BSTAR": 0, "MEAN_MOTION_DOT": -3.23e-06, "MEAN_MOTION_DDOT": 0}, "tle": {"line1": "1 43823U 18100A   25358.23184955 -.00000323  00000+0  00000+0 0  9997", "line2": "2 43823   0.0444 175.8502 0000300 270.7430 218.1364  1.00269294 25878"}}, "geometry": {"type": "Point", "coordinates": [36.9104921318441, -0.02467002343115195]}}, {"type": "Feature", "properties": {"norad_id": 44387, "name": "METEOR-M2 2", "group": "weather", "lat": 13.03768509508633, "lon": 161.4489403788138, "alt_km": 810.9848046144052, "timestamp": "2025-12-25T11:37:44.065044+00:00", "meta": {"OBJECT_NAME": "METEOR-M2 2", "OBJECT_ID": "2019-038A", "EPOCH": "2025-12-25T04:06:17.952768", "MEAN_MOTION": 14.24296286, "ECCENTRICITY": 0.00018, "INCLINATION": 98.8986, "RA_OF_ASC_NODE": 339.0525, "ARG_OF_PERICENTER": 124.5068, "MEAN_ANOMALY": 235.628, "EPHEMERIS_TYPE": 0, "CLASSIFICATION_TYPE": "U", "NORAD_CAT_ID": 44387, "ELEMENT_SET_NO": 999, "REV_AT_EPOCH": 33652, "BSTAR": 7.6025e-05, "MEAN_MOTION_DOT": 1.3e-06, "MEAN_MOTION_DDOT": 0}, "tle": {"line1": "1 44387U 19038A   25359.17104112  .00000130  00000+0  76025-4 0  9995", "line2": "2 44387  98.8986 339.0525 0001800 124.5068 235.6280 14.24296286336527"}}, "geometry": {"type": "Point", "coordinates": [161.4489403788138, 13.03768509508633]}}, {"type": "Feature", "properties": {"norad_id": 47719, "name": "ARKTIKA-M 1", "group": "weather", "lat": 13.137385384745198, "lon": -104.46464142427814, "alt_km": 9068.152089022868, "timestamp": "2025-12-25T11:37:44.065057+00:00", "meta": {"OBJECT_NAME": "ARKTIKA-M 1", "OBJECT_ID": "2021-016A", "EPOCH": "2025-12-25T00:52:45.922368", "MEAN_MOTION": 2.00630507, "ECCENTRICITY": 0.7210339, "INCLINATION": 63.177, "RA_OF_ASC_NODE": 82.3163, "ARG_OF_PERICENTER": 269.1694, "MEAN_ANOMALY": 15.5374, "EPHEMERIS_TYPE": 0, "CLASSIFICATION_TYPE": "U", "NORAD_CAT_ID": 47719, "ELEMENT_SET_NO": 999, "REV_AT_EPOCH": 3529, "BSTAR": 0, "MEAN_MOTION_DOT": -4.3e-07, "MEAN_MOTION_DDOT": 0}, "tle": {"line1": "1 47719U 21016A   25359.03664262 -.00000043  00000+0  00000+0 0  9997", "line2": "2 47719  63.1770  82.3163 7210339 269.1694  15.5374  2.00630507 35296"}}, "geometry": {"type": "Point", "coordinates": [-104.46464142427814, 13.137385384745198]}}, {"type": "Feature", "properties": {"norad_id": 49008, "name": "FENGYUN 3E", "group": "weather", "lat": -73.9188132696202, "lon": 32.13718152382782, "alt_km": 833.0963246678175, "timestamp": "2025-12-25T11:37:44.065071+00:00", "meta": {"OBJECT_NAME": "FENGYUN 3E", "OBJECT_ID": "2021-062A", "EPOCH": "2025-12-25T03:31:56.537760", "MEAN_MOTION": 14.19881103, "ECCENTRICITY": 9.4e-05, "INCLINATION": 98.7476, "RA_OF_ASC_NODE": 359.521, "ARG_OF_PERICENTER": 189.9291, "MEAN_ANOMALY": 170.1866, "EPHEMERIS_TYPE": 0, "CLASSIFICATION_TYPE": "U", "NORAD_CAT_ID": 49008, "ELEMENT_SET_NO": 999, "REV_AT_EPOCH": 23188, "BSTAR": 2.5812e-05, "MEAN_MOTION_DOT": 1.1e-07, "MEAN_MOTION_DDOT": 0}, "tle": {"line1": "1 49008U 21062A   25359.14718215  .00000011  00000+0  25812-4 0  9998", "line2": "2 49008  98.7476 359.5210 0000940 189.9291 170.1866 14.19881103231888"}}, "geometry": {"type": "Point", "coordinates": [32.13718152382782, -73.9188132696202]}}, {"type": "Feature", "properties": {"norad_id": 51850, "name": "GOES 18", "group": "weather", "lat": -0.00020088340651618203, "lon": 131.66775419937179, "alt_km": 35787.896736150054, "timestamp": "2025-12-25T11:37:44.065083+00:00", "meta": {"OBJECT_NAME": "GOES 18", "OBJECT_ID": "2022-021A", "EPOCH": "2025-12-25T02:08:26.134368", "MEAN_MOTION": 1.00271254, "ECCENTRICITY": 4.06e-05, "INCLINATION": 0.0027, "RA_OF_ASC_NODE": 276.3002, "ARG_OF_PERICENTER": 41.3938, "MEAN_ANOMALY": 31.2662, "EPHEMERIS_TYPE": 0, "CLASSIFICATION_TYPE": "U", "NORAD_CAT_ID": 51850, "ELEMENT_SET_NO": 999, "REV_AT_EPOCH": 484, "BSTAR": 0, "MEAN_MOTION_DOT": 1.18e-06, "MEAN_MOTION_DDOT": 0}, "tle": {"line1": "1 51850U 22021A   25359.08919137  .00000118  00000+0  00000+0 0  9996", "line2": "2 51850   0.0027 276.3002 0000406  41.3938  31.2662  1.00271254  4846"}}, "geometry": {"type": "Point", "coordinates": [131.66775419937179, -0.00020088340651618203]}}]}